{
  "norad_id": 63355,
  "name": "LEMUR-2-NEUROSPICY",
  "history": [
    {
      "epoch": "2026-03-28T22:29:15.226656Z",
      "apogee_km": 537.2630618692183,
      "perigee_km": 513.4997707765515,
      "latitude_deg": -1.5502703067427985e-05,
      "longitude_deg": -99.45680968991452,
      "height_km": 540.1770707717288,
      "semi_major_axis_km": 6903.518416322885,
      "eccentricity": 0.0017211,
      "inclination_deg": 97.5564,
      "raan_deg": 64.2069,
      "arg_perigee_deg": 170.5554,
      "mean_anomaly_deg": 189.6004,
      "mean_motion_rev_day": 15.13550899
    },
    {
      "epoch": "2026-03-29T04:50:03.415488Z",
      "apogee_km": 537.2625892952983,
      "perigee_km": 513.4717332547134,
      "latitude_deg": -2.8224961795586283e-06,
      "longitude_deg": 165.3440514225709,
      "height_km": 540.142777806522,
      "semi_major_axis_km": 6903.504161275006,
      "eccentricity": 0.0017231,
      "inclination_deg": 97.5565,
      "raan_deg": 64.4692,
      "arg_perigee_deg": 169.6287,
      "mean_anomaly_deg": 190.5303,
      "mean_motion_rev_day": 15.13555587
    },
    {
      "epoch": "2026-03-30T04:38:03.727680Z",
      "apogee_km": 537.331202163633,
      "perigee_km": 513.3347405432078,
      "latitude_deg": 2.3680997635869505e-05,
      "longitude_deg": 168.3486129248997,
      "height_km": 540.0482931771191,
      "semi_major_axis_km": 6903.46997135342,
      "eccentricity": 0.001738,
      "inclination_deg": 97.5567,
      "raan_deg": 65.4525,
      "arg_perigee_deg": 166.0225,
      "mean_anomaly_deg": 194.1491,
      "mean_motion_rev_day": 15.13566831
    },
    {
      "epoch": "2026-03-30T10:58:51.693600Z",
      "apogee_km": 537.3499876198412,
      "perigee_km": 513.2965371659966,
      "latitude_deg": 1.18877422795517e-06,
      "longitude_deg": 73.15031024848787,
      "height_km": 540.0158805913031,
      "semi_major_axis_km": 6903.460262392919,
      "eccentricity": 0.00174213,
      "inclination_deg": 97.5566,
      "raan_deg": 65.7147,
      "arg_perigee_deg": 165.0727,
      "mean_anomaly_deg": 195.1022,
      "mean_motion_rev_day": 15.13570024
    },
    {
      "epoch": "2026-03-30T22:05:15.482976Z",
      "apogee_km": 537.3685475894299,
      "perigee_km": 513.2400537617859,
      "latitude_deg": 1.791503218984049e-05,
      "longitude_deg": -93.44594601258771,
      "height_km": 539.9438008473431,
      "semi_major_axis_km": 6903.441300675608,
      "eccentricity": 0.00174757,
      "inclination_deg": 97.5567,
      "raan_deg": 66.1737,
      "arg_perigee_deg": 163.5221,
      "mean_anomaly_deg": 196.6582,
      "mean_motion_rev_day": 15.1357626
    },
    {
      "epoch": "2026-03-31T20:18:02.727360Z",
      "apogee_km": 537.415522039134,
      "perigee_km": 513.1362189735637,
      "latitude_deg": 3.424400522919929e-05,
      "longitude_deg": -66.63705905121861,
      "height_km": 539.7855072039864,
      "semi_major_axis_km": 6903.412870506349,
      "eccentricity": 0.0017585,
      "inclination_deg": 97.5567,
      "raan_deg": 67.0917,
      "arg_perigee_deg": 160.4666,
      "mean_anomaly_deg": 199.7243,
      "mean_motion_rev_day": 15.1358561
    },
    {
      "epoch": "2026-04-01T15:20:25.683360Z",
      "apogee_km": 537.4579248654709,
      "perigee_km": 513.055808226005,
      "latitude_deg": 1.3992998095761524e-06,
      "longitude_deg": 7.772263181632691,
      "height_km": 539.6306406603256,
      "semi_major_axis_km": 6903.393866545737,
      "eccentricity": 0.0017674,
      "inclination_deg": 97.5571,
      "raan_deg": 67.8786,
      "arg_perigee_deg": 157.9287,
      "mean_anomaly_deg": 202.2709,
      "mean_motion_rev_day": 15.1359186
    },
    {
      "epoch": "2026-04-02T10:22:48.241920Z",
      "apogee_km": 537.4512129971436,
      "perigee_km": 512.9910963163993,
      "latitude_deg": 6.119780730197038e-05,
      "longitude_deg": 82.18323346768317,
      "height_km": 539.416485905403,
      "semi_major_axis_km": 6903.358154656771,
      "eccentricity": 0.00177161,
      "inclination_deg": 97.5572,
      "raan_deg": 68.6655,
      "arg_perigee_deg": 155.5154,
      "mean_anomaly_deg": 204.6923,
      "mean_motion_rev_day": 15.13603605
    },
    {
      "epoch": "2026-04-02T21:29:11.091264Z",
      "apogee_km": 537.4468847862008,
      "perigee_km": 512.9379942770311,
      "latitude_deg": -5.3738507813613506e-05,
      "longitude_deg": -84.40897810949447,
      "height_km": 539.2771841497807,
      "semi_major_axis_km": 6903.329439531615,
      "eccentricity": 0.00177515,
      "inclination_deg": 97.5575,
      "raan_deg": 69.1246,
      "arg_perigee_deg": 154.0693,
      "mean_anomaly_deg": 206.1431,
      "mean_motion_rev_day": 15.13613049
    },
    {
      "epoch": "2026-04-03T21:17:08.134944Z",
      "apogee_km": 537.4618259019198,
      "perigee_km": 512.8295326457355,
      "latitude_deg": 7.344586430294138e-05,
      "longitude_deg": -81.39047442789311,
      "height_km": 538.9724116304926,
      "semi_major_axis_km": 6903.282679273827,
      "eccentricity": 0.0017841,
      "inclination_deg": 97.5578,
      "raan_deg": 70.1082,
      "arg_perigee_deg": 150.9348,
      "mean_anomaly_deg": 209.2881,
      "mean_motion_rev_day": 15.13628428
    },
    {
      "epoch": "2026-04-04T21:05:04.204896Z",
      "apogee_km": 537.4887702784808,
      "perigee_km": 512.7226966479093,
      "latitude_deg": -4.1144721712008337e-05,
      "longitude_deg": -78.36767138550012,
      "height_km": 538.6280625527729,
      "semi_major_axis_km": 6903.242733463195,
      "eccentricity": 0.0017938,
      "inclination_deg": 97.5582,
      "raan_deg": 71.092,
      "arg_perigee_deg": 147.6689,
      "mean_anomaly_deg": 212.5645,
      "mean_motion_rev_day": 15.13641566
    },
    {
      "epoch": "2026-04-05T11:21:49.478976Z",
      "apogee_km": 537.5055991346871,
      "perigee_km": 512.6582909283197,
      "latitude_deg": -7.049180042544184e-05,
      "longitude_deg": 67.44766185982567,
      "height_km": 538.3964475136685,
      "semi_major_axis_km": 6903.218945031504,
      "eccentricity": 0.00179969,
      "inclination_deg": 97.5584,
      "raan_deg": 71.6824,
      "arg_perigee_deg": 145.6506,
      "mean_anomaly_deg": 214.5892,
      "mean_motion_rev_day": 15.1364939
    },
    {
      "epoch": "2026-04-05T20:52:59.530944Z",
      "apogee_km": 537.5225398181474,
      "perigee_km": 512.614393852712,
      "latitude_deg": -1.7264981977234708e-05,
      "longitude_deg": -75.34167935886529,
      "height_km": 538.2397194858911,
      "semi_major_axis_km": 6903.205466835429,
      "eccentricity": 0.0018041,
      "inclination_deg": 97.5585,
      "raan_deg": 72.0759,
      "arg_perigee_deg": 144.3098,
      "mean_anomaly_deg": 215.9343,
      "mean_motion_rev_day": 15.13653823
    },
    {
      "epoch": "2026-04-05T22:28:11.196480Z",
      "apogee_km": 537.5284661102705,
      "perigee_km": 512.6033475027798,
      "latitude_deg": 2.213662870069379e-05,
      "longitude_deg": -99.13984934591379,
      "height_km": 538.2143677018554,
      "semi_major_axis_km": 6903.202906806525,
      "eccentricity": 0.00180533,
      "inclination_deg": 97.5586,
      "raan_deg": 72.1415,
      "arg_perigee_deg": 144.0782,
      "mean_anomaly_deg": 216.1667,
      "mean_motion_rev_day": 15.13654665
    },
    {
      "epoch": "2026-04-07T10:57:38.869632Z",
      "apogee_km": 537.6205930483029,
      "perigee_km": 512.4299874085391,
      "latitude_deg": -3.8505368245924556e-05,
      "longitude_deg": 73.50451696926234,
      "height_km": 537.5740086297632,
      "semi_major_axis_km": 6903.162290228421,
      "eccentricity": 0.00182457,
      "inclination_deg": 97.5587,
      "raan_deg": 73.6498,
      "arg_perigee_deg": 138.9391,
      "mean_anomaly_deg": 221.3217,
      "mean_motion_rev_day": 15.13668024
    },
    {
      "epoch": "2026-04-07T20:28:48.490464Z",
      "apogee_km": 537.6398119352016,
      "perigee_km": 512.3908419841136,
      "latitude_deg": 1.2801305075365987e-05,
      "longitude_deg": -69.28292313057042,
      "height_km": 537.3952719547746,
      "semi_major_axis_km": 6903.152326959657,
      "eccentricity": 0.0018288,
      "inclination_deg": 97.5588,
      "raan_deg": 74.0434,
      "arg_perigee_deg": 137.6453,
      "mean_anomaly_deg": 222.6194,
      "mean_motion_rev_day": 15.13671301
    },
    {
      "epoch": "2026-04-08T10:45:32.765760Z",
      "apogee_km": 537.635190070353,
      "perigee_km": 512.3680459751213,
      "latitude_deg": 8.225586514839023e-05,
      "longitude_deg": 76.53656921959865,
      "height_km": 537.1186607180018,
      "semi_major_axis_km": 6903.138618022737,
      "eccentricity": 0.00183012,
      "inclination_deg": 97.5586,
      "raan_deg": 74.6338,
      "arg_perigee_deg": 135.8698,
      "mean_anomaly_deg": 224.3998,
      "mean_motion_rev_day": 15.1367581
    },
    {
      "epoch": "2026-04-09T20:04:35.628672Z",
      "apogee_km": 537.6701754055994,
      "perigee_km": 512.2681253933588,
      "latitude_deg": 1.649853094941055e-05,
      "longitude_deg": -63.21645458013003,
      "height_km": 536.4240539567248,
      "semi_major_axis_km": 6903.106150399479,
      "eccentricity": 0.0018399,
      "inclination_deg": 97.5583,
      "raan_deg": 76.011,
      "arg_perigee_deg": 131.4599,
      "mean_anomaly_deg": 228.8216,
      "mean_motion_rev_day": 15.13686489
    },
    {
      "epoch": "2026-04-10T04:00:33.318720Z",
      "apogee_km": 537.6827793730172,
      "perigee_km": 512.2364465763367,
      "latitude_deg": -3.601672536998435e-05,
      "longitude_deg": 177.79529220474635,
      "height_km": 536.2560689565875,
      "semi_major_axis_km": 6903.096612974677,
      "eccentricity": 0.00184311,
      "inclination_deg": 97.5584,
      "raan_deg": 76.3389,
      "arg_perigee_deg": 130.4328,
      "mean_anomaly_deg": 229.8514,
      "mean_motion_rev_day": 15.13689626
    },
    {
      "epoch": "2026-04-11T21:15:32.639616Z",
      "apogee_km": 537.7080876974524,
      "perigee_km": 512.1432853441911,
      "latitude_deg": 1.6166288804366094e-05,
      "longitude_deg": -80.94085800338277,
      "height_km": 535.3132773392622,
      "semi_major_axis_km": 6903.062686520821,
      "eccentricity": 0.0018517,
      "inclination_deg": 97.5581,
      "raan_deg": 78.044,
      "arg_perigee_deg": 125.0835,
      "mean_anomaly_deg": 235.2136,
      "mean_motion_rev_day": 15.13700785
    },
    {
      "epoch": "2026-04-12T21:03:24.796512Z",
      "apogee_km": 537.7433455821147,
      "perigee_km": 512.0721646858265,
      "latitude_deg": 4.128681723803017e-05,
      "longitude_deg": -77.9018241383943,
      "height_km": 534.7347496984785,
      "semi_major_axis_km": 6903.04475513397,
      "eccentricity": 0.00185941,
      "inclination_deg": 97.5581,
      "raan_deg": 79.0277,
      "arg_perigee_deg": 121.9311,
      "mean_anomaly_deg": 238.3732,
      "mean_motion_rev_day": 15.13706683
    }
  ]
}